{
  "type": "FeatureCollection",
  "features": [
    {
      "type": "Feature",
      "properties": {
        "norad_id": 34722,
        "name": "COSMOS 2251 DEB",
        "group": "cosmos-2251-debris",
        "lat": -57.976609511602064,
        "lon": -45.38890947662591,
        "alt_km": 754.0796197076088,
        "timestamp": "2025-12-09T07:41:33.606662+00:00",
        "meta_object_name": "COSMOS 2251 DEB",
        "meta_object_id": "1993-036YQ",
        "meta_epoch": "2025-12-08T23:37:28.755840",
        "meta_mean_motion": 14.11915137,
        "meta_eccentricity": 0.01672795,
        "meta_inclination": 73.8728,
        "meta_ra_of_asc_node": 342.7659,
        "meta_arg_of_pericenter": 268.966,
        "meta_mean_anomaly": 120.1524,
        "meta_ephemeris_type": 0,
        "meta_classification_type": "U",
        "meta_norad_cat_id": 34722,
        "meta_element_set_no": 999,
        "meta_rev_at_epoch": 86192,
        "meta_bstar": 0.0011607543,
        "meta_mean_motion_dot": 2.394e-05,
        "meta_mean_motion_ddot": 0,
        "tle_line1": "1 34722U 93036YQ  25342.98436060  .00002394  00000+0  11608-2 0  9996",
        "tle_line2": "2 34722  73.8728 342.7659 0167279 268.9660 120.1524 14.11915137861924"
      },
      "geometry": {
        "type": "Point",
        "coordinates": [
          -45.38890947662591,
          -57.976609511602064
        ]
      }
    },
    {
      "type": "Feature",
      "properties": {
        "norad_id": 34726,
        "name": "COSMOS 2251 DEB",
        "group": "cosmos-2251-debris",
        "lat": 71.01040903026423,
        "lon": 116.51998186800104,
        "alt_km": 666.3234636908646,
        "timestamp": "2025-12-09T07:41:33.606672+00:00",
        "meta_object_name": "COSMOS 2251 DEB",
        "meta_object_id": "1993-036YU",
        "meta_epoch": "2025-12-08T19:43:06.131136",
        "meta_mean_motion": 14.5945803,
        "meta_eccentricity": 0.00421849,
        "meta_inclination": 74.0291,
        "meta_ra_of_asc_node": 353.798,
        "meta_arg_of_pericenter": 145.8605,
        "meta_mean_anomaly": 214.5287,
        "meta_ephemeris_type": 0,
        "meta_classification_type": "U",
        "meta_norad_cat_id": 34726,
        "meta_element_set_no": 999,
        "meta_rev_at_epoch": 88445,
        "meta_bstar": 0.00052044384,
        "meta_mean_motion_dot": 2.469e-05,
        "meta_mean_motion_ddot": 0,
        "tle_line1": "1 34726U 93036YU  25342.82159874  .00002469  00000+0  52044-3 0  9991",
        "tle_line2": "2 34726  74.0291 353.7980 0042184 145.8605 214.5287 14.59458030884457"
      },
      "geometry": {
        "type": "Point",
        "coordinates": [
          116.51998186800104,
          71.01040903026423
        ]
      }
    },
    {
      "type": "Feature",
      "properties": {
        "norad_id": 34728,
        "name": "COSMOS 2251 DEB",
        "group": "cosmos-2251-debris",
        "lat": -18.776222017607058,
        "lon": 84.00785550596842,
        "alt_km": 686.1680522644447,
        "timestamp": "2025-12-09T07:41:33.606683+00:00",
        "meta_object_name": "COSMOS 2251 DEB",
        "meta_object_id": "1993-036YW",
        "meta_epoch": "2025-12-08T04:40:21.187488",
        "meta_mean_motion": 14.70775682,
        "meta_eccentricity": 0.00410887,
        "meta_inclination": 74.018,
        "meta_ra_of_asc_node": 260.6035,
        "meta_arg_of_pericenter": 59.4394,
        "meta_mean_anomaly": 301.0821,
        "meta_ephemeris_type": 0,
        "meta_classification_type": "U",
        "meta_norad_cat_id": 34728,
        "meta_element_set_no": 999,
        "meta_rev_at_epoch": 88733,
        "meta_bstar": 0.0011226976,
        "meta_mean_motion_dot": 6.918e-05,
        "meta_mean_motion_ddot": 0,
        "tle_line1": "1 34728U 93036YW  25342.19468967  .00006918  00000+0  11227-2 0  9999",
        "tle_line2": "2 34728  74.0180 260.6035 0041088  59.4394 301.0821 14.70775682887334"
      },
      "geometry": {
        "type": "Point",
        "coordinates": [
          84.00785550596842,
          -18.776222017607058
        ]
      }
    },
    {
      "type": "Feature",
      "properties": {
        "norad_id": 34729,
        "name": "COSMOS 2251 DEB",
        "group": "cosmos-2251-debris",
        "lat": 61.629866761972025,
        "lon": 37.25587368409278,
        "alt_km": 610.5174487179147,
        "timestamp": "2025-12-09T07:41:33.606694+00:00",
        "meta_object_name": "COSMOS 2251 DEB",
        "meta_object_id": "1993-036YX",
        "meta_epoch": "2025-12-08T12:38:33.716832",
        "meta_mean_motion": 14.82610152,
        "meta_eccentricity": 0.00118663,
        "meta_inclination": 74.018,
        "meta_ra_of_asc_node": 6.7731,
        "meta_arg_of_pericenter": 128.2562,
        "meta_mean_anomaly": 23.3369,
        "meta_ephemeris_type": 0,
        "meta_classification_type": "U",
        "meta_norad_cat_id": 34729,
        "meta_element_set_no": 999,
        "meta_rev_at_epoch": 88395,
        "meta_bstar": 0.0023481946,
        "meta_mean_motion_dot": 0.00018951,
        "meta_mean_motion_ddot": 0,
        "tle_line1": "1 34729U 93036YX  25342.52677913  .00018951  00000+0  23482-2 0  9996",
        "tle_line2": "2 34729  74.0180   6.7731 0011866 128.2562  23.3369 14.82610152883958"
      },
      "geometry": {
        "type": "Point",
        "coordinates": [
          37.25587368409278,
          61.629866761972025
        ]
      }
    },
    {
      "type": "Feature",
      "properties": {
        "norad_id": 34732,
        "name": "COSMOS 2251 DEB",
        "group": "cosmos-2251-debris",
        "lat": 7.990900695089179,
        "lon": 101.87677147303594,
        "alt_km": 749.0958496016401,
        "timestamp": "2025-12-09T07:41:33.606704+00:00",
        "meta_object_name": "COSMOS 2251 DEB",
        "meta_object_id": "1993-036ZA",
        "meta_epoch": "2025-12-08T19:05:29.361408",
        "meta_mean_motion": 14.47294366,
        "meta_eccentricity": 0.0040456,
        "meta_inclination": 74.045,
        "meta_ra_of_asc_node": 100.5559,
        "meta_arg_of_pericenter": 252.3107,
        "meta_mean_anomaly": 261.1721,
        "meta_ephemeris_type": 0,
        "meta_classification_type": "U",
        "meta_norad_cat_id": 34732,
        "meta_element_set_no": 999,
        "meta_rev_at_epoch": 88086,
        "meta_bstar": 0.00031405215,
        "meta_mean_motion_dot": 1.133e-05,
        "meta_mean_motion_ddot": 0,
        "tle_line1": "1 34732U 93036ZA  25342.79547872  .00001133  00000+0  31405-3 0  9998",
        "tle_line2": "2 34732  74.0450 100.5559 0040456 252.3107 261.1721 14.47294366880861"
      },
      "geometry": {
        "type": "Point",
        "coordinates": [
          101.87677147303594,
          7.990900695089179
        ]
      }
    },
    {
      "type": "Feature",
      "properties": {
        "norad_id": 34736,
        "name": "COSMOS 2251 DEB",
        "group": "cosmos-2251-debris",
        "lat": 2.5432310583424163,
        "lon": 44.43045398793188,
        "alt_km": 425.24576093317773,
        "timestamp": "2025-12-09T07:41:33.606715+00:00",
        "meta_object_name": "COSMOS 2251 DEB",
        "meta_object_id": "1993-036ZE",
        "meta_epoch": "2025-12-08T14:34:25.701024",
        "meta_mean_motion": 15.43608373,
        "meta_eccentricity": 0.0016929,
        "meta_inclination": 74.0019,
        "meta_ra_of_asc_node": 45.2532,
        "meta_arg_of_pericenter": 349.9791,
        "meta_mean_anomaly": 10.1078,
        "meta_ephemeris_type": 0,
        "meta_classification_type": "U",
        "meta_norad_cat_id": 34736,
        "meta_element_set_no": 999,
        "meta_rev_at_epoch": 88384,
        "meta_bstar": 0.0078832,
        "meta_mean_motion_dot": 0.00373965,
        "meta_mean_motion_ddot": 0,
        "tle_line1": "1 34736U 93036ZE  25342.60724191  .00373965  00000+0  78832-2 0  9992",
        "tle_line2": "2 34736  74.0019  45.2532 0016929 349.9791  10.1078 15.43608373883844"
      },
      "geometry": {
        "type": "Point",
        "coordinates": [
          44.43045398793188,
          2.5432310583424163
        ]
      }
    },
    {
      "type": "Feature",
      "properties": {
        "norad_id": 34738,
        "name": "COSMOS 2251 DEB",
        "group": "cosmos-2251-debris",
        "lat": 50.139014540987404,
        "lon": 169.73594705300712,
        "alt_km": 747.7536126307286,
        "timestamp": "2025-12-09T07:41:33.606725+00:00",
        "meta_object_name": "COSMOS 2251 DEB",
        "meta_object_id": "1993-036ZG",
        "meta_epoch": "2025-12-08T22:02:35.750976",
        "meta_mean_motion": 14.46287194,
        "meta_eccentricity": 0.00472924,
        "meta_inclination": 74.0142,
        "meta_ra_of_asc_node": 150.4078,
        "meta_arg_of_pericenter": 297.3871,
        "meta_mean_anomaly": 182.6562,
        "meta_ephemeris_type": 0,
        "meta_classification_type": "U",
        "meta_norad_cat_id": 34738,
        "meta_element_set_no": 999,
        "meta_rev_at_epoch": 87803,
        "meta_bstar": 0.00047458761,
        "meta_mean_motion_dot": 1.696e-05,
        "meta_mean_motion_ddot": 0,
        "tle_line1": "1 34738U 93036ZG  25342.91846934  .00001696  00000+0  47459-3 0  9999",
        "tle_line2": "2 34738  74.0142 150.4078 0047292 297.3871 182.6562 14.46287194878033"
      },
      "geometry": {
        "type": "Point",
        "coordinates": [
          169.73594705300712,
          50.139014540987404
        ]
      }
    }
  ]
}